XRISM                   
1 57800U 23137A   23349.56751644  .00004048  00000+0  32031-3 0  9992
2 57800  31.0032 105.6115 0009989 179.1134 180.9519 14.98898348 14865
